ARCSTONE                
1 64540U 25135N   26068.88991918  .00026427  00000+0  94900-3 0  9995
2 64540  97.4495 185.9194 0004120 166.7863 193.3485 15.28638458 39847
STARLINK-35758          
1 66229U 25244Z   26068.70484128  .00017249  00000+0  59310-3 0  9991
2 66229  53.1600 229.7065 0000936  80.3876 279.7231 15.30203217 21663
